<?xml version="1.0" encoding="UTF-8"?>
<ndm xmlns:xsi="http://www.w3.org/2001/XMLSchema-instance" xsi:noNamespaceSchemaLocation="https://sanaregistry.org/r/ndmxml_unqualified/ndmxml-2.0.0-master-2.0.xsd">
<omm id="CCSDS_OMM_VERS" version="2.0">
<header><CREATION_DATE/><ORIGINATOR/></header><body><segment><metadata><OBJECT_NAME>ORBCOMM FM33</OBJECT_NAME><OBJECT_ID>1999-065D</OBJECT_ID><CENTER_NAME>EARTH</CENTER_NAME><REF_FRAME>TEME</REF_FRAME><TIME_SYSTEM>UTC</TIME_SYSTEM><MEAN_ELEMENT_THEORY>SGP4</MEAN_ELEMENT_THEORY></metadata><data><meanElements><EPOCH>2025-11-02T01:41:04.559424</EPOCH><MEAN_MOTION>14.40360828</MEAN_MOTION><ECCENTRICITY>.00068353</ECCENTRICITY><INCLINATION>45.0288</INCLINATION><RA_OF_ASC_NODE>63.2604</RA_OF_ASC_NODE><ARG_OF_PERICENTER>39.5878</ARG_OF_PERICENTER><MEAN_ANOMALY>320.5469</MEAN_ANOMALY></meanElements><tleParameters><EPHEMERIS_TYPE>0</EPHEMERIS_TYPE><CLASSIFICATION_TYPE>U</CLASSIFICATION_TYPE><NORAD_CAT_ID>25983</NORAD_CAT_ID><ELEMENT_SET_NO>999</ELEMENT_SET_NO><REV_AT_EPOCH>35594</REV_AT_EPOCH><BSTAR>.50773922E-3</BSTAR><MEAN_MOTION_DOT>.1483E-4</MEAN_MOTION_DOT><MEAN_MOTION_DDOT>0</MEAN_MOTION_DDOT></tleParameters></data></segment></body></omm>
<omm id="CCSDS_OMM_VERS" version="2.0">
<header><CREATION_DATE/><ORIGINATOR/></header><body><segment><metadata><OBJECT_NAME>ORBCOMM FM36</OBJECT_NAME><OBJECT_ID>1999-065E</OBJECT_ID><CENTER_NAME>EARTH</CENTER_NAME><REF_FRAME>TEME</REF_FRAME><TIME_SYSTEM>UTC</TIME_SYSTEM><MEAN_ELEMENT_THEORY>SGP4</MEAN_ELEMENT_THEORY></metadata><data><meanElements><EPOCH>2025-11-02T06:47:05.353440</EPOCH><MEAN_MOTION>14.38527921</MEAN_MOTION><ECCENTRICITY>.00023924</ECCENTRICITY><INCLINATION>45.0375</INCLINATION><RA_OF_ASC_NODE>156.2826</RA_OF_ASC_NODE><ARG_OF_PERICENTER>287.1507</ARG_OF_PERICENTER><MEAN_ANOMALY>72.9080</MEAN_ANOMALY></meanElements><tleParameters><EPHEMERIS_TYPE>0</EPHEMERIS_TYPE><CLASSIFICATION_TYPE>U</CLASSIFICATION_TYPE><NORAD_CAT_ID>25984</NORAD_CAT_ID><ELEMENT_SET_NO>999</ELEMENT_SET_NO><REV_AT_EPOCH>35430</REV_AT_EPOCH><BSTAR>.45688295E-3</BSTAR><MEAN_MOTION_DOT>.1267E-4</MEAN_MOTION_DOT><MEAN_MOTION_DDOT>0</MEAN_MOTION_DDOT></tleParameters></data></segment></body></omm>
<omm id="CCSDS_OMM_VERS" version="2.0">
<header><CREATION_DATE/><ORIGINATOR/></header><body><segment><metadata><OBJECT_NAME>ORBCOMM FM35</OBJECT_NAME><OBJECT_ID>1999-065F</OBJECT_ID><CENTER_NAME>EARTH</CENTER_NAME><REF_FRAME>TEME</REF_FRAME><TIME_SYSTEM>UTC</TIME_SYSTEM><MEAN_ELEMENT_THEORY>SGP4</MEAN_ELEMENT_THEORY></metadata><data><meanElements><EPOCH>2025-11-02T07:02:47.097888</EPOCH><MEAN_MOTION>14.37456677</MEAN_MOTION><ECCENTRICITY>.0004307</ECCENTRICITY><INCLINATION>45.0378</INCLINATION><RA_OF_ASC_NODE>162.3786</RA_OF_ASC_NODE><ARG_OF_PERICENTER>13.8277</ARG_OF_PERICENTER><MEAN_ANOMALY>346.2689</MEAN_ANOMALY></meanElements><tleParameters><EPHEMERIS_TYPE>0</EPHEMERIS_TYPE><CLASSIFICATION_TYPE>U</CLASSIFICATION_TYPE><NORAD_CAT_ID>25985</NORAD_CAT_ID><ELEMENT_SET_NO>999</ELEMENT_SET_NO><REV_AT_EPOCH>35465</REV_AT_EPOCH><BSTAR>.4033E-3</BSTAR><MEAN_MOTION_DOT>.1075E-4</MEAN_MOTION_DOT><MEAN_MOTION_DDOT>0</MEAN_MOTION_DDOT></tleParameters></data></segment></body></omm>
<omm id="CCSDS_OMM_VERS" version="2.0">
<header><CREATION_DATE/><ORIGINATOR/></header><body><segment><metadata><OBJECT_NAME>ORBCOMM FM34</OBJECT_NAME><OBJECT_ID>1999-065G</OBJECT_ID><CENTER_NAME>EARTH</CENTER_NAME><REF_FRAME>TEME</REF_FRAME><TIME_SYSTEM>UTC</TIME_SYSTEM><MEAN_ELEMENT_THEORY>SGP4</MEAN_ELEMENT_THEORY></metadata><data><meanElements><EPOCH>2025-11-02T07:53:15.042048</EPOCH><MEAN_MOTION>14.37429973</MEAN_MOTION><ECCENTRICITY>.0003962</ECCENTRICITY><INCLINATION>45.0374</INCLINATION><RA_OF_ASC_NODE>162.6707</RA_OF_ASC_NODE><ARG_OF_PERICENTER>327.9964</ARG_OF_PERICENTER><MEAN_ANOMALY>32.0643</MEAN_ANOMALY></meanElements><tleParameters><EPHEMERIS_TYPE>0</EPHEMERIS_TYPE><CLASSIFICATION_TYPE>U</CLASSIFICATION_TYPE><NORAD_CAT_ID>25986</NORAD_CAT_ID><ELEMENT_SET_NO>999</ELEMENT_SET_NO><REV_AT_EPOCH>35477</REV_AT_EPOCH><BSTAR>.3665E-3</BSTAR><MEAN_MOTION_DOT>.964E-5</MEAN_MOTION_DOT><MEAN_MOTION_DDOT>0</MEAN_MOTION_DDOT></tleParameters></data></segment></body></omm>
<omm id="CCSDS_OMM_VERS" version="2.0">
<header><CREATION_DATE/><ORIGINATOR/></header><body><segment><metadata><OBJECT_NAME>ORBCOMM FM38</OBJECT_NAME><OBJECT_ID>2008-031A</OBJECT_ID><CENTER_NAME>EARTH</CENTER_NAME><REF_FRAME>TEME</REF_FRAME><TIME_SYSTEM>UTC</TIME_SYSTEM><MEAN_ELEMENT_THEORY>SGP4</MEAN_ELEMENT_THEORY></metadata><data><meanElements><EPOCH>2025-11-02T11:10:14.016864</EPOCH><MEAN_MOTION>14.81988077</MEAN_MOTION><ECCENTRICITY>.0005609</ECCENTRICITY><INCLINATION>48.4409</INCLINATION><RA_OF_ASC_NODE>15.9831</RA_OF_ASC_NODE><ARG_OF_PERICENTER>276.8280</ARG_OF_PERICENTER><MEAN_ANOMALY>83.1997</MEAN_ANOMALY></meanElements><tleParameters><EPHEMERIS_TYPE>0</EPHEMERIS_TYPE><CLASSIFICATION_TYPE>U</CLASSIFICATION_TYPE><NORAD_CAT_ID>33060</NORAD_CAT_ID><ELEMENT_SET_NO>999</ELEMENT_SET_NO><REV_AT_EPOCH>93525</REV_AT_EPOCH><BSTAR>.31314E-3</BSTAR><MEAN_MOTION_DOT>.2295E-4</MEAN_MOTION_DOT><MEAN_MOTION_DDOT>0</MEAN_MOTION_DDOT></tleParameters></data></segment></body></omm>
<omm id="CCSDS_OMM_VERS" version="2.0">
<header><CREATION_DATE/><ORIGINATOR/></header><body><segment><metadata><OBJECT_NAME>ORBCOMM FM41</OBJECT_NAME><OBJECT_ID>2008-031B</OBJECT_ID><CENTER_NAME>EARTH</CENTER_NAME><REF_FRAME>TEME</REF_FRAME><TIME_SYSTEM>UTC</TIME_SYSTEM><MEAN_ELEMENT_THEORY>SGP4</MEAN_ELEMENT_THEORY></metadata><data><meanElements><EPOCH>2025-11-02T12:15:41.829120</EPOCH><MEAN_MOTION>14.81551556</MEAN_MOTION><ECCENTRICITY>.0004799</ECCENTRICITY><INCLINATION>48.4445</INCLINATION><RA_OF_ASC_NODE>24.0310</RA_OF_ASC_NODE><ARG_OF_PERICENTER>262.8397</ARG_OF_PERICENTER><MEAN_ANOMALY>110.7908</MEAN_ANOMALY></meanElements><tleParameters><EPHEMERIS_TYPE>0</EPHEMERIS_TYPE><CLASSIFICATION_TYPE>U</CLASSIFICATION_TYPE><NORAD_CAT_ID>33061</NORAD_CAT_ID><ELEMENT_SET_NO>999</ELEMENT_SET_NO><REV_AT_EPOCH>93474</REV_AT_EPOCH><BSTAR>.29468E-3</BSTAR><MEAN_MOTION_DOT>.2123E-4</MEAN_MOTION_DOT><MEAN_MOTION_DDOT>0</MEAN_MOTION_DDOT></tleParameters></data></segment></body></omm>
<omm id="CCSDS_OMM_VERS" version="2.0">
<header><CREATION_DATE/><ORIGINATOR/></header><body><segment><metadata><OBJECT_NAME>ORBCOMM FM29</OBJECT_NAME><OBJECT_ID>2008-031C</OBJECT_ID><CENTER_NAME>EARTH</CENTER_NAME><REF_FRAME>TEME</REF_FRAME><TIME_SYSTEM>UTC</TIME_SYSTEM><MEAN_ELEMENT_THEORY>SGP4</MEAN_ELEMENT_THEORY></metadata><data><meanElements><EPOCH>2025-11-02T10:23:24.471168</EPOCH><MEAN_MOTION>14.81680757</MEAN_MOTION><ECCENTRICITY>.0006495</ECCENTRICITY><INCLINATION>48.4394</INCLINATION><RA_OF_ASC_NODE>32.0325</RA_OF_ASC_NODE><ARG_OF_PERICENTER>261.1497</ARG_OF_PERICENTER><MEAN_ANOMALY>196.5545</MEAN_ANOMALY></meanElements><tleParameters><EPHEMERIS_TYPE>0</EPHEMERIS_TYPE><CLASSIFICATION_TYPE>U</CLASSIFICATION_TYPE><NORAD_CAT_ID>33062</NORAD_CAT_ID><ELEMENT_SET_NO>999</ELEMENT_SET_NO><REV_AT_EPOCH>93464</REV_AT_EPOCH><BSTAR>.32822E-3</BSTAR><MEAN_MOTION_DOT>.2398E-4</MEAN_MOTION_DOT><MEAN_MOTION_DDOT>0</MEAN_MOTION_DDOT></tleParameters></data></segment></body></omm>
<omm id="CCSDS_OMM_VERS" version="2.0">
<header><CREATION_DATE/><ORIGINATOR/></header><body><segment><metadata><OBJECT_NAME>ORBCOMM FM39</OBJECT_NAME><OBJECT_ID>2008-031D</OBJECT_ID><CENTER_NAME>EARTH</CENTER_NAME><REF_FRAME>TEME</REF_FRAME><TIME_SYSTEM>UTC</TIME_SYSTEM><MEAN_ELEMENT_THEORY>SGP4</MEAN_ELEMENT_THEORY></metadata><data><meanElements><EPOCH>2025-11-02T07:31:37.118784</EPOCH><MEAN_MOTION>14.80153494</MEAN_MOTION><ECCENTRICITY>.0007283</ECCENTRICITY><INCLINATION>48.4399</INCLINATION><RA_OF_ASC_NODE>58.4207</RA_OF_ASC_NODE><ARG_OF_PERICENTER>232.8478</ARG_OF_PERICENTER><MEAN_ANOMALY>127.1773</MEAN_ANOMALY></meanElements><tleParameters><EPHEMERIS_TYPE>0</EPHEMERIS_TYPE><CLASSIFICATION_TYPE>U</CLASSIFICATION_TYPE><NORAD_CAT_ID>33063</NORAD_CAT_ID><ELEMENT_SET_NO>999</ELEMENT_SET_NO><REV_AT_EPOCH>93425</REV_AT_EPOCH><BSTAR>.31405E-3</BSTAR><MEAN_MOTION_DOT>.2198E-4</MEAN_MOTION_DOT><MEAN_MOTION_DDOT>0</MEAN_MOTION_DDOT></tleParameters></data></segment></body></omm>

</ndm>
