ORBCOMM FM33            
1 25983U 99065D   25306.07019166  .00001483  00000+0  50774-3 0  9993
2 25983  45.0288  63.2604 0006835  39.5878 320.5469 14.40360828355940
ORBCOMM FM36            
1 25984U 99065E   25306.28270085  .00001267  00000+0  45688-3 0  9994
2 25984  45.0375 156.2826 0002392 287.1507  72.9080 14.38527921354303
ORBCOMM FM35            
1 25985U 99065F   25306.29360067  .00001075  00000+0  40330-3 0  9992
2 25985  45.0378 162.3786 0004307  13.8277 346.2689 14.37456677354654
ORBCOMM FM34            
1 25986U 99065G   25306.32864632  .00000964  00000+0  36650-3 0  9990
2 25986  45.0374 162.6707 0003962 327.9964  32.0643 14.37429973354777
ORBCOMM FM38            
1 33060U 08031A   25306.46544001  .00002295  00000+0  31314-3 0  9996
2 33060  48.4409  15.9831 0005609 276.8280  83.1997 14.81988077935257
ORBCOMM FM41            
1 33061U 08031B   25306.51090080  .00002123  00000+0  29468-3 0  9993
2 33061  48.4445  24.0310 0004799 262.8397 110.7908 14.81551556934744
ORBCOMM FM29            
1 33062U 08031C   25306.43292212  .00002398  00000+0  32822-3 0  9998
2 33062  48.4394  32.0325 0006495 261.1497 196.5545 14.81680757934645
ORBCOMM FM39            
1 33063U 08031D   25306.31362406  .00002198  00000+0  31405-3 0  9993
2 33063  48.4399  58.4207 0007283 232.8478 127.1773 14.80153494934254
